[
    {
        "Altitude(m)": 622205.8286035804,
        "Argument of Periapsis(deg)": 0.0,
        "Eccentricity": 0.0,
        "Inclination(deg)": 60.0,
        "Latitude(deg)": -52.162328086895855,
        "Longitude(deg)": 92.70041974446622,
        "Mean Anomaly(deg)": -114.5455,
        "RAAN(deg)": 325.0,
        "Satellite Name": "Test1 1445",
        "Satellite Number": 1445,
        "Semi-Major Axis(m)": 6980739.136638005,
        "Time(s)": 0
    },
    {
        "Altitude(m)": 622344.7351775275,
        "Argument of Periapsis(deg)": 0.00010418945913296404,
        "Eccentricity": 0.0,
        "Inclination(deg)": 60.0,
        "Latitude(deg)": -52.51990743016331,
        "Longitude(deg)": 93.4816305364366,
        "Mean Anomaly(deg)": -113.92539385453817,
        "RAAN(deg)": 324.99957995086027,
        "Satellite Name": "Test1 1445",
        "Satellite Number": 1445,
        "Semi-Major Axis(m)": 6980739.136638005,
        "Time(s)": 10
    }
]